{"type": "FeatureCollection", "features": [ {"type": "Feature", "properties": {"norad_id": 35480, "name": "IRIDIUM 33 DEB", "group": "iridium-33-debris", "lat": 42.394505910404625, "lon": 28.067512737144, "alt_km": 717.2899413974455, "timestamp": "2025-12-13T03:42:11.657753+00:00", "meta": {"OBJECT_NAME": "IRIDIUM 33 DEB", "OBJECT_ID": "1997-051QA", "EPOCH": "2025-12-09T19:59:43.135296", "MEAN_MOTION": 14.49744632, "ECCENTRICITY": 0.00159269, "INCLINATION": 86.357, "RA_OF_ASC_NODE": 26.1722, "ARG_OF_PERICENTER": 113.2937, "MEAN_ANOMALY": 246.9945, "EPHEMERIS_TYPE": 0, "CLASSIFICATION_TYPE": "U", "NORAD_CAT_ID": 35480, "ELEMENT_SET_NO": 999, "REV_AT_EPOCH": 86989, "BSTAR": 0.0009193458, "MEAN_MOTION_DOT": 3.565e-05, "MEAN_MOTION_DDOT": 0}, "tle": {"line1": "1 35480U 97051QA  25343.83313814  .00003565  00000+0  91935-3 0  9998", "line2": "2 35480  86.3570  26.1722 0015926 113.2937 246.9945 14.49744632869893"}}, "geometry": {"type": "Point", "coordinates": [28.067512737144, 42.394505910404625]}}, {"type": "Feature", "properties": {"norad_id": 35484, "name": "IRIDIUM 33 DEB", "group": "iridium-33-debris", "lat": -78.78231330610808, "lon": -26.164937390847953, "alt_km": 593.4786142230605, "timestamp": "2025-12-13T03:42:11.657763+00:00", "meta": {"OBJECT_NAME": "IRIDIUM 33 DEB", "OBJECT_ID": "1997-051QE", "EPOCH": "2025-12-12T07:13:32.804832", "MEAN_MOTION": 14.98607005, "ECCENTRICITY": 0.0023596, "INCLINATION": 86.3611, "RA_OF_ASC_NODE": 352.9505, "ARG_OF_PERICENTER": 126.5148, "MEAN_ANOMALY": 233.8262, "EPHEMERIS_TYPE": 0, "CLASSIFICATION_TYPE": "U", "NORAD_CAT_ID": 35484, "ELEMENT_SET_NO": 999, "REV_AT_EPOCH": 62009, "BSTAR": 0.0041273462, "MEAN_MOTION_DOT": 0.00050078, "MEAN_MOTION_DDOT": 0}, "tle": {"line1": "1 35484U 97051QE  25346.30107413  .00050078  00000+0  41273-2 0  9993", "line2": "2 35484  86.3611 352.9505 0023596 126.5148 233.8262 14.98607005620095"}}, "geometry": {"type": "Point", "coordinates": [-26.164937390847953, -78.78231330610808]}}, {"type": "Feature", "properties": {"norad_id": 35488, "name": "IRIDIUM 33 DEB", "group": "iridium-33-debris", "lat": 6.248770280534835, "lon": -58.90944223998162, "alt_km": 604.4809098072747, "timestamp": "2025-12-13T03:42:11.657773+00:00", "meta": {"OBJECT_NAME": "IRIDIUM 33 DEB", "OBJECT_ID": "1997-051QJ", "EPOCH": "2025-12-10T07:39:38.233728", "MEAN_MOTION": 14.82954928, "ECCENTRICITY": 0.00301497, "INCLINATION": 86.3246, "RA_OF_ASC_NODE": 301.994, "ARG_OF_PERICENTER": 50.6144, "MEAN_ANOMALY": 309.7742, "EPHEMERIS_TYPE": 0, "CLASSIFICATION_TYPE": "U", "NORAD_CAT_ID": 35488, "ELEMENT_SET_NO": 999, "REV_AT_EPOCH": 88230, "BSTAR": 0.0023681949, "MEAN_MOTION_DOT": 0.0001943, "MEAN_MOTION_DDOT": 0}, "tle": {"line1": "1 35488U 97051QJ  25344.31919252  .00019430  00000+0  23682-2 0  9999", "line2": "2 35488  86.3246 301.9940 0030149  50.6144 309.7742 14.82954928882307"}}, "geometry": {"type": "Point", "coordinates": [-58.90944223998162, 6.248770280534835]}}, {"type": "Feature", "properties": {"norad_id": 35616, "name": "IRIDIUM 33 DEB", "group": "iridium-33-debris", "lat": 15.782837025512942, "lon": 164.5430549173511, "alt_km": 617.336674206771, "timestamp": "2025-12-13T03:42:11.657783+00:00", "meta": {"OBJECT_NAME": "IRIDIUM 33 DEB", "OBJECT_ID": "1997-051QN", "EPOCH": "2025-12-11T10:26:51.153792", "MEAN_MOTION": 14.81765908, "ECCENTRICITY": 0.00099847, "INCLINATION": 86.3548, "RA_OF_ASC_NODE": 346.3598, "ARG_OF_PERICENTER": 167.762, "MEAN_ANOMALY": 192.3847, "EPHEMERIS_TYPE": 0, "CLASSIFICATION_TYPE": "U", "NORAD_CAT_ID": 35616, "ELEMENT_SET_NO": 999, "REV_AT_EPOCH": 87555, "BSTAR": 0.0032912714, "MEAN_MOTION_DOT": 0.00026074, "MEAN_MOTION_DDOT": 0}, "tle": {"line1": "1 35616U 97051QN  25345.43531428  .00026074  00000+0  32913-2 0  9990", "line2": "2 35616  86.3548 346.3598 0009984 167.7620 192.3847 14.81765908875557"}}, "geometry": {"type": "Point", "coordinates": [164.5430549173511, 15.782837025512942]}}, {"type": "Feature", "properties": {"norad_id": 35618, "name": "IRIDIUM 33 DEB", "group": "iridium-33-debris", "lat": -65.60819937561939, "lon": -178.56517189595664, "alt_km": 740.3294678833881, "timestamp": "2025-12-13T03:42:11.657794+00:00", "meta": {"OBJECT_NAME": "IRIDIUM 33 DEB", "OBJECT_ID": "1997-051QQ", "EPOCH": "2025-12-05T07:42:53.148672", "MEAN_MOTION": 14.52258119, "ECCENTRICITY": 0.00302089, "INCLINATION": 86.3407, "RA_OF_ASC_NODE": 356.7447, "ARG_OF_PERICENTER": 46.3254, "MEAN_ANOMALY": 314.0448, "EPHEMERIS_TYPE": 0, "CLASSIFICATION_TYPE": "U", "NORAD_CAT_ID": 35618, "ELEMENT_SET_NO": 999, "REV_AT_EPOCH": 65286, "BSTAR": 0.00091388234, "MEAN_MOTION_DOT": 3.753e-05, "MEAN_MOTION_DDOT": 0}, "tle": {"line1": "1 35618U 97051QQ  25339.32144848  .00003753  00000+0  91388-3 0  9990", "line2": "2 35618  86.3407 356.7447 0030208  46.3254 314.0448 14.52258119652865"}}, "geometry": {"type": "Point", "coordinates": [-178.56517189595664, -65.60819937561939]}}, {"type": "Feature", "properties": {"norad_id": 35620, "name": "IRIDIUM 33 DEB", "group": "iridium-33-debris", "lat": -26.0437845598325, "lon": 39.04743780562245, "alt_km": 707.1208444429494, "timestamp": "2025-12-13T03:42:11.657804+00:00", "meta": {"OBJECT_NAME": "IRIDIUM 33 DEB", "OBJECT_ID": "1997-051QS", "EPOCH": "2025-12-12T01:41:06.603648", "MEAN_MOTION": 14.38023351, "ECCENTRICITY": 0.01413324, "INCLINATION": 86.3886, "RA_OF_ASC_NODE": 217.736, "ARG_OF_PERICENTER": 261.1948, "MEAN_ANOMALY": 97.3224, "EPHEMERIS_TYPE": 0, "CLASSIFICATION_TYPE": "U", "NORAD_CAT_ID": 35620, "ELEMENT_SET_NO": 999, "REV_AT_EPOCH": 59956, "BSTAR": 0.0071195038, "MEAN_MOTION_DOT": 0.00024261, "MEAN_MOTION_DDOT": 0}, "tle": {"line1": "1 35620U 97051QS  25346.07021532  .00024261  00000+0  71195-2 0  9997", "line2": "2 35620  86.3886 217.7360 0141332 261.1948  97.3224 14.38023351599569"}}, "geometry": {"type": "Point", "coordinates": [39.04743780562245, -26.0437845598325]}}, {"type": "Feature", "properties": {"norad_id": 35622, "name": "IRIDIUM 33 DEB", "group": "iridium-33-debris", "lat": 31.95518289719118, "lon": -94.22639472429583, "alt_km": 547.6164358021488, "timestamp": "2025-12-13T03:42:11.657815+00:00", "meta": {"OBJECT_NAME": "IRIDIUM 33 DEB", "OBJECT_ID": "1997-051QU", "EPOCH": "2025-12-12T05:53:29.345856", "MEAN_MOTION": 15.04595376, "ECCENTRICITY": 0.0006602, "INCLINATION": 86.201, "RA_OF_ASC_NODE": 263.8459, "ARG_OF_PERICENTER": 344.016, "MEAN_ANOMALY": 168.38, "EPHEMERIS_TYPE": 0, "CLASSIFICATION_TYPE": "U", "NORAD_CAT_ID": 35622, "ELEMENT_SET_NO": 999, "REV_AT_EPOCH": 87352, "BSTAR": 0.007348182, "MEAN_MOTION_DOT": 0.00104555, "MEAN_MOTION_DDOT": 0}, "tle": {"line1": "1 35622U 97051QU  25346.24547854  .00104555  00000+0  73482-2 0  9994", "line2": "2 35622  86.2010 263.8459 0006602 344.0160 168.3800 15.04595376873522"}}, "geometry": {"type": "Point", "coordinates": [-94.22639472429583, 31.95518289719118]}}, {"type": "Feature", "properties": {"norad_id": 35628, "name": "IRIDIUM 33 DEB", "group": "iridium-33-debris", "lat": 13.992176074571372, "lon": -172.01857303437214, "alt_km": 677.2205894751933, "timestamp": "2025-12-13T03:42:11.657825+00:00", "meta": {"OBJECT_NAME": "IRIDIUM 33 DEB", "OBJECT_ID": "1997-051RA", "EPOCH": "2025-12-12T07:18:45.972000", "MEAN_MOTION": 14.67573898, "ECCENTRICITY": 0.00104647, "INCLINATION": 86.358, "RA_OF_ASC_NODE": 9.2695, "ARG_OF_PERICENTER": 344.3823, "MEAN_ANOMALY": 15.7067, "EPHEMERIS_TYPE": 0, "CLASSIFICATION_TYPE": "U", "NORAD_CAT_ID": 35628, "ELEMENT_SET_NO": 999, "REV_AT_EPOCH": 86440, "BSTAR": 0.0020648512, "MEAN_MOTION_DOT": 0.00011757, "MEAN_MOTION_DDOT": 0}, "tle": {"line1": "1 35628U 97051RA  25346.30469875  .00011757  00000+0  20649-2 0  9991", "line2": "2 35628  86.3580   9.2695 0010464 344.3823  15.7067 14.67573898864405"}}, "geometry": {"type": "Point", "coordinates": [-172.01857303437214, 13.992176074571372]}}, {"type": "Feature", "properties": {"norad_id": 35631, "name": "IRIDIUM 33 DEB", "group": "iridium-33-debris", "lat": 31.370166301068274, "lon": 23.01745333478958, "alt_km": 731.477347868813, "timestamp": "2025-12-13T03:42:11.657835+00:00", "meta": {"OBJECT_NAME": "IRIDIUM 33 DEB", "OBJECT_ID": "1997-051RD", "EPOCH": "2025-12-11T08:29:06.309600", "MEAN_MOTION": 14.47305653, "ECCENTRICITY": 0.001885, "INCLINATION": 86.3673, "RA_OF_ASC_NODE": 21.5727, "ARG_OF_PERICENTER": 122.0874, "MEAN_ANOMALY": 253.1598, "EPHEMERIS_TYPE": 0, "CLASSIFICATION_TYPE": "U", "NORAD_CAT_ID": 35631, "ELEMENT_SET_NO": 999, "REV_AT_EPOCH": 87177, "BSTAR": 0.00056547362, "MEAN_MOTION_DOT": 2.093e-05, "MEAN_MOTION_DDOT": 0}, "tle": {"line1": "1 35631U 97051RD  25345.35354525  .00002093  00000+0  56547-3 0  9994", "line2": "2 35631  86.3673  21.5727 0018850 122.0874 253.1598 14.47305653871774"}}, "geometry": {"type": "Point", "coordinates": [23.01745333478958, 31.370166301068274]}}, {"type": "Feature", "properties": {"norad_id": 35680, "name": "IRIDIUM 33 DEB", "group": "iridium-33-debris", "lat": -35.47849700803331, "lon": 18.55443316501632, "alt_km": 754.2590655395852, "timestamp": "2025-12-13T03:42:11.657846+00:00", "meta": {"OBJECT_NAME": "IRIDIUM 33 DEB", "OBJECT_ID": "1997-051RJ", "EPOCH": "2025-12-10T20:56:41.216928", "MEAN_MOTION": 14.2086329, "ECCENTRICITY": 0.015045, "INCLINATION": 86.1029, "RA_OF_ASC_NODE": 22.3487, "ARG_OF_PERICENTER": 284.4866, "MEAN_ANOMALY": 255.1489, "EPHEMERIS_TYPE": 0, "CLASSIFICATION_TYPE": "U", "NORAD_CAT_ID": 35680, "ELEMENT_SET_NO": 999, "REV_AT_EPOCH": 60674, "BSTAR": 0.0056946, "MEAN_MOTION_DOT": 0.00013831, "MEAN_MOTION_DDOT": 0}, "tle": {"line1": "1 35680U 97051RJ  25344.87269927  .00013831  00000+0  56946-2 0  9999", "line2": "2 35680  86.1029  22.3487 0150450 284.4866 255.1489 14.20863290606741"}}, "geometry": {"type": "Point", "coordinates": [18.55443316501632, -35.47849700803331]}}]}